{"type": "FeatureCollection", "features": [{"geometry": {"type": "Point", "coordinates": [103.800739285174, 1.27772675967445]}, "type": "Feature", "properties": {"binType": "ewaste", "address": "Alexandra Technopark B, 438B Alexandra Road, Alexandra Technopark B", "postcode": "119967", "showMarker": false}}, {"geometry": {"type": "Point", "coordinates": [103.815828543116, 1.28525426592061]}, "type": "Feature", "properties": {"binType": "ewaste", "address": "Bukit Merah CC, 4000 Jalan Bukit Merah", "postcode": "159465", "showMarker": false}}, {"geometry": {"type": "Point", "coordinates": [103.77055880601, 1.37645074924612]}, "type": "Feature", "properties": {"binType": "ewaste", "address": "Bukit Panjang CC, 8 Pending Road", "postcode": "678295", "showMarker": false}}, {"geometry": {"type": "Point", "coordinates": [103.845765158161, 1.37343368369214]}, "type": "Feature", "properties": {"binType": "ewaste", "address": "Courts (Ang Mo Kio), 730 Ang Mo Kio Avenue 6", "postcode": "560730", "showMarker": false}}, {"geometry": {"type": "Point", "coordinates": [103.942476405496, 1.37842943699246]}, "type": "Feature", "properties": {"binType": "ewaste", "address": "Pasir Ris Elias CC, 93 Pasir Ris Drive 3", "postcode": "519498", "showMarker": false}}, {"geometry": {"type": "Point", "coordinates": [103.901988174009, 1.40653610720599]}, "type": "Feature", "properties": {"binType": "ewaste", "address": "Waterway Point (StarHub Shop), 83 Punggol Central, #B1-27", "postcode": "828761", "showMarker": false}}, {"geometry": {"type": "Point", "coordinates": [103.848987435347, 1.28245764446031]}, "type": "Feature", "properties": {"binType": "ewaste", "address": "Market Street Interim Hawker Centre, 5 Cross Street", "postcode": "48424", "showMarker": false}}, {"geometry": {"type": "Point", "coordinates": [103.910880675524, 1.3987520243871]}, "type": "Feature", "properties": {"binType": "ewaste", "address": "Punggol Oceanus RC, 187 Punggol Central, #01-26", "postcode": "820187", "showMarker": false}}, {"geometry": {"type": "Point", "coordinates": [103.932360135904, 1.32496142341112]}, "type": "Feature", "properties": {"binType": "ewaste", "address": "Bedok Point, 799 Upper Changi Road", "postcode": "467351", "showMarker": false}}, {"geometry": {"type": "Point", "coordinates": [103.87170454945, 1.35043817177432]}, "type": "Feature", "properties": {"binType": "ewaste", "address": "NEX, M1 Shop, 23 Serangoon Central, #B1-56", "postcode": "556083", "showMarker": false}}, {"geometry": {"type": "Point", "coordinates": [103.7467344968, 1.33489843717476]}, "type": "Feature", "properties": {"binType": "ewaste", "address": "IMM Building, M1 Shop, 2 Jurong East Street 21, #01-20", "postcode": "609601", "showMarker": false}}, {"geometry": {"type": "Point", "coordinates": [103.909660431254, 1.38949149935928]}, "type": "Feature", "properties": {"binType": "ewaste", "address": "Rivervale Arc RC, 180C Rivervale Crescent, #01-367", "postcode": "543180", "showMarker": false}}, {"geometry": {"type": "Point", "coordinates": [103.8975474119, 1.38681828916719]}, "type": "Feature", "properties": {"binType": "ewaste", "address": "Compassvale Villa RC, 206C Compassvale Lane, #01-99", "postcode": "543206", "showMarker": false}}, {"geometry": {"type": "Point", "coordinates": [103.894980032554, 1.39209415018227]}, "type": "Feature", "properties": {"binType": "ewaste", "address": "Compass One Mall, 1 Sengkang Square", "postcode": "545078", "showMarker": false}}, {"geometry": {"type": "Point", "coordinates": [103.907288602075, 1.40328429076968]}, "type": "Feature", "properties": {"binType": "ewaste", "address": "Punggol Vista CC, 602 Punggol Central, #01-02", "postcode": "820602", "showMarker": false}}, {"geometry": {"type": "Point", "coordinates": [103.902910898023, 1.39877826808137]}, "type": "Feature", "properties": {"binType": "ewaste", "address": "Punggol Clover RC, 204A Punggol Field, #01-288", "postcode": "821204", "showMarker": false}}, {"geometry": {"type": "Point", "coordinates": [103.896616090591, 1.40479713290427]}, "type": "Feature", "properties": {"binType": "ewaste", "address": "Punggol Jewel RC, 260A Punggol Way, #01-303", "postcode": "821260", "showMarker": false}}, {"geometry": {"type": "Point", "coordinates": [103.931620621577, 1.32698498848449]}, "type": "Feature", "properties": {"binType": "ewaste", "address": "Heartbeat@Bedok, 11 Bedok North Street 1, #02-04", "postcode": "469662", "showMarker": false}}, {"geometry": {"type": "Point", "coordinates": [103.907555604233, 1.39579971735497]}, "type": "Feature", "properties": {"binType": "ewaste", "address": "Punggol Meridian RC, 114 Edgefield Plains, #01-358", "postcode": "820114", "showMarker": false}}, {"geometry": {"type": "Point", "coordinates": [103.89566486383, 1.40451590068484]}, "type": "Feature", "properties": {"binType": "ewaste", "address": "Punggol West CC, 259C Punggol Field, #01-47", "postcode": "823259", "showMarker": false}}, {"geometry": {"type": "Point", "coordinates": [103.900750126977, 1.31784643130184]}, "type": "Feature", "properties": {"binType": "ewaste", "address": "Kampong Ubi CC, 10 Jalan Ubi", "postcode": "409075", "showMarker": false}}, {"geometry": {"type": "Point", "coordinates": [103.837684358423, 1.30138509490103]}, "type": "Feature", "properties": {"binType": "ewaste", "address": "313@somerset, 313 Orchard Road", "postcode": "238895", "showMarker": false}}, {"geometry": {"type": "Point", "coordinates": [103.790059163939, 1.44432926679854]}, "type": "Feature", "properties": {"binType": "ewaste", "address": "Shell Woodlands Ave 9, 20 Woodlands Avenue 9", "postcode": "738954", "showMarker": false}}, {"geometry": {"type": "Point", "coordinates": [103.838320878461, 1.27192261730767]}, "type": "Feature", "properties": {"binType": "ewaste", "address": "Tanjong Pagar, 37 Keppel Road", "postcode": "89064", "showMarker": false}}, {"geometry": {"type": "Point", "coordinates": [103.894067163693, 1.31885610260134]}, "type": "Feature", "properties": {"binType": "ewaste", "address": "General Post Office, 10 Eunos Road 8, #01-123/124/125", "postcode": "408600", "showMarker": false}}, {"geometry": {"type": "Point", "coordinates": [103.894067163693, 1.31885610260134]}, "type": "Feature", "properties": {"binType": "ewaste", "address": "SingPost Centre, 10 Eunos Road 8", "postcode": "408600", "showMarker": false}}, {"geometry": {"type": "Point", "coordinates": [103.943727696927, 1.35227803231671]}, "type": "Feature", "properties": {"binType": "ewaste", "address": "Tampines Mall, 4 Tampines Central 5, #02-13/14/15", "postcode": "529509", "showMarker": false}}, {"geometry": {"type": "Point", "coordinates": [103.875708629661, 1.3768019168526]}, "type": "Feature", "properties": {"binType": "ewaste", "address": "Serangoon North, 56 Serangoon North Avenue 4", "postcode": "555851", "showMarker": false}}, {"geometry": {"type": "Point", "coordinates": [103.873927617452, 1.37005486240283]}, "type": "Feature", "properties": {"binType": "ewaste", "address": "Serangoon Community Club, 10 Serangoon North Avenue 2", "postcode": "555877", "showMarker": false}}, {"geometry": {"type": "Point", "coordinates": [103.841584210034, 1.27616698002633]}, "type": "Feature", "properties": {"binType": "ewaste", "address": "Tanjong Pagar CC, 101 Cantonment Road", "postcode": "89774", "showMarker": false}}, {"geometry": {"type": "Point", "coordinates": [103.96246206052, 1.34021377744784]}, "type": "Feature", "properties": {"binType": "ewaste", "address": "Singapore University of Technology and Design (SUTD), 8 Somapah Road", "postcode": "487372", "showMarker": false}}, {"geometry": {"type": "Point", "coordinates": [103.69702008582, 1.34159107979646]}, "type": "Feature", "properties": {"binType": "ewaste", "address": "Pioneer Mall, 638 Jurong West Street 61", "postcode": "640638", "showMarker": false}}, {"geometry": {"type": "Point", "coordinates": [103.86703683934, 1.33253591154285]}, "type": "Feature", "properties": {"binType": "ewaste", "address": "Potong Pasir CC, 6 Potong Pasir Avenue 2", "postcode": "358361", "showMarker": false}}, {"geometry": {"type": "Point", "coordinates": [103.939683594446, 1.35349615471813]}, "type": "Feature", "properties": {"binType": "ewaste", "address": "Our Tampines Hub, 505 Tampines Avenue 5, #04-01", "postcode": "528523", "showMarker": false}}, {"geometry": {"type": "Point", "coordinates": [103.785006866148, 1.43177102177052]}, "type": "Feature", "properties": {"binType": "ewaste", "address": "Woodgrove CC, 353 Woodlands Avenue 1", "postcode": "730353", "showMarker": false}}, {"geometry": {"type": "Point", "coordinates": [103.894980032554, 1.39209415018227]}, "type": "Feature", "properties": {"binType": "ewaste", "address": "Sengkang Public Library, 1 Sengkang Square & Compass One, #03-28 / #04-19", "postcode": "545078", "showMarker": false}}, {"geometry": {"type": "Point", "coordinates": [103.83761242449, 1.37300749906274]}, "type": "Feature", "properties": {"binType": "ewaste", "address": "Kebun Baru CC, 216 Ang Mo Kio Avenue 4", "postcode": "569897", "showMarker": false}}, {"geometry": {"type": "Point", "coordinates": [103.742586017746, 1.33402528745454]}, "type": "Feature", "properties": {"binType": "ewaste", "address": "Westgate (StarHub Shop), 3 Gateway Drive, #03-28", "postcode": "608532", "showMarker": false}}, {"geometry": {"type": "Point", "coordinates": [103.856979169641, 1.32463959408329]}, "type": "Feature", "properties": {"binType": "ewaste", "address": "Whampoa CC, 300 Whampoa Drive", "postcode": "327737", "showMarker": false}}, {"geometry": {"type": "Point", "coordinates": [103.830642033306, 1.30467628324463]}, "type": "Feature", "properties": {"binType": "ewaste", "address": "Wheelock Place, 501 Orchard Road", "postcode": "238880", "showMarker": false}}, {"geometry": {"type": "Point", "coordinates": [103.949715702336, 1.37244981614241]}, "type": "Feature", "properties": {"binType": "ewaste", "address": "White Sands Shopping Centre, 1 Pasir Ris Central", "postcode": "518457", "showMarker": false}}, {"geometry": {"type": "Point", "coordinates": [103.912976441683, 1.39418409117746]}, "type": "Feature", "properties": {"binType": "ewaste", "address": "Punggol Plaza, 168 Punggol Field", "postcode": "820168", "showMarker": false}}, {"geometry": {"type": "Point", "coordinates": [103.860698339413, 1.35206195845703]}, "type": "Feature", "properties": {"binType": "ewaste", "address": "Lenovo Singapore, 151 Lor Chuan, #02-01", "postcode": "556741", "showMarker": false}}, {"geometry": {"type": "Point", "coordinates": [103.749021980031, 1.35018915982967]}, "type": "Feature", "properties": {"binType": "ewaste", "address": "Bukit Batok Central, 1 Bukit Batok Central Link West Mall, #05-09", "postcode": "658713", "showMarker": false}}, {"geometry": {"type": "Point", "coordinates": [103.839759027803, 1.30197836640111]}, "type": "Feature", "properties": {"binType": "ewaste", "address": "The Centrepoint, 176 Orchard Road (Annex Block), Centrepoint", "postcode": "238843", "showMarker": false}}, {"geometry": {"type": "Point", "coordinates": [103.933805897843, 1.37362335947781]}, "type": "Feature", "properties": {"binType": "ewaste", "address": "Courts (Megastore), 50 Tampines North Drive 2", "postcode": "528766", "showMarker": false}}, {"geometry": {"type": "Point", "coordinates": [103.87170454945, 1.35043817177432]}, "type": "Feature", "properties": {"binType": "ewaste", "address": "Serangoon Public Library, 23 Serangoon\u00c2\u00a0Central, #04-82/83", "postcode": "556083", "showMarker": false}}, {"geometry": {"type": "Point", "coordinates": [103.819462104528, 1.44822653184262]}, "type": "Feature", "properties": {"binType": "ewaste", "address": "Sembawang Public Library, 30 Sembawang Drive, #05-01", "postcode": "757713", "showMarker": false}}, {"geometry": {"type": "Point", "coordinates": [103.869693090627, 1.32415431819916]}, "type": "Feature", "properties": {"binType": "ewaste", "address": "Kolam Ayer CC, 1 Geylang Bahru", "postcode": "339631", "showMarker": false}}, {"geometry": {"type": "Point", "coordinates": [103.768153686645, 1.31881518814763]}, "type": "Feature", "properties": {"binType": "ewaste", "address": "Clementi CC, 220 Clementi Avenue 4", "postcode": "129880", "showMarker": false}}, {"geometry": {"type": "Point", "coordinates": [103.834693130803, 1.4151749664221]}, "type": "Feature", "properties": {"binType": "ewaste", "address": "Nee Soon South CC, 30 Yishun Street 81", "postcode": "768455", "showMarker": false}}, {"geometry": {"type": "Point", "coordinates": [103.848399227484, 1.3692489128202]}, "type": "Feature", "properties": {"binType": "ewaste", "address": "AMK Hub, 53 Ang Mo Kio Avenue 3", "postcode": "569933", "showMarker": false}}, {"geometry": {"type": "Point", "coordinates": [103.845618296664, 1.27679992161406]}, "type": "Feature", "properties": {"binType": "ewaste", "address": "Guoco Tower, 1 Wallich Street", "postcode": "78881", "showMarker": false}}, {"geometry": {"type": "Point", "coordinates": [103.851838948436, 1.28298070814926]}, "type": "Feature", "properties": {"binType": "ewaste", "address": "Ocean Financial Centre, 10 Collyer Quay", "postcode": "49315", "showMarker": false}}, {"geometry": {"type": "Point", "coordinates": [103.944387987324, 1.35267231590699]}, "type": "Feature", "properties": {"binType": "ewaste", "address": "Tampines Mall, M1 Shop, 4 Tampines Central 5, #03-01", "postcode": "529510", "showMarker": false}}, {"geometry": {"type": "Point", "coordinates": [103.707710354808, 1.34400340900883]}, "type": "Feature", "properties": {"binType": "ewaste", "address": "Shell Boon Lay, 2 Boon Lay Avenue", "postcode": "649960", "showMarker": false}}, {"geometry": {"type": "Point", "coordinates": [103.922102960991, 1.32365172013797]}, "type": "Feature", "properties": {"binType": "ewaste", "address": "Viva Business Park, 750 Chai Chee Road", "postcode": "469000", "showMarker": false}}, {"geometry": {"type": "Point", "coordinates": [103.949294393687, 1.34068473973667]}, "type": "Feature", "properties": {"binType": "ewaste", "address": "Changi General Hospital (Main Building), 2 Simei Street 3", "postcode": "529889", "showMarker": false}}, {"geometry": {"type": "Point", "coordinates": [103.818868957208, 1.26581279998504]}, "type": "Feature", "properties": {"binType": "ewaste", "address": "Bank of America Merrill Lynch, 2 Harbourfront Place", "postcode": "98499", "showMarker": false}}, {"geometry": {"type": "Point", "coordinates": [103.844968724915, 1.27306802555823]}, "type": "Feature", "properties": {"binType": "ewaste", "address": "78 Shenton Way, 78 Shenton Way, #03-02", "postcode": "79120", "showMarker": false}}, {"geometry": {"type": "Point", "coordinates": [103.848494463856, 1.33735130408154]}, "type": "Feature", "properties": {"binType": "ewaste", "address": "Jackson Square, 11 Lorong 3 Toa Payoh", "postcode": "319579", "showMarker": false}}, {"geometry": {"type": "Point", "coordinates": [103.845047580881, 1.30074770847155]}, "type": "Feature", "properties": {"binType": "ewaste", "address": "Plaza Singapura (StarHub Shop), 68 Orchard Road, #01-36", "postcode": "238839", "showMarker": false}}, {"geometry": {"type": "Point", "coordinates": [103.788101018519, 1.29986251303555]}, "type": "Feature", "properties": {"binType": "ewaste", "address": "Galaxis at One North, 1 Fusionopolis Place", "postcode": "138522", "showMarker": false}}, {"geometry": {"type": "Point", "coordinates": [103.7467344968, 1.33489843717476]}, "type": "Feature", "properties": {"binType": "ewaste", "address": "Capitaland IMM, 2 Jurong East Street 21", "postcode": "609601", "showMarker": false}}, {"geometry": {"type": "Point", "coordinates": [103.852768332387, 1.29376027875418]}, "type": "Feature", "properties": {"binType": "ewaste", "address": "Capitaland Raffles City, 252 North Bridge Road", "postcode": "179103", "showMarker": false}}, {"geometry": {"type": "Point", "coordinates": [103.944387987324, 1.35267231590699]}, "type": "Feature", "properties": {"binType": "ewaste", "address": "Capitaland Tampines Mall, 4 Tampines Central 5", "postcode": "529510", "showMarker": false}}, {"geometry": {"type": "Point", "coordinates": [103.799064831461, 1.27482748253668]}, "type": "Feature", "properties": {"binType": "ewaste", "address": "Mapletree Business City 1, 20 Pasir Panjang Road, #01-25", "postcode": "117439", "showMarker": false}}, {"geometry": {"type": "Point", "coordinates": [103.779088060198, 1.28322850908551]}, "type": "Feature", "properties": {"binType": "ewaste", "address": "PSA Vista, 20 20 Harbour Drive", "postcode": "117612", "showMarker": false}}, {"geometry": {"type": "Point", "coordinates": [103.796444654455, 1.27735927952776]}, "type": "Feature", "properties": {"binType": "ewaste", "address": "Interlocal Centre, 100G Pasir Panjang Road", "postcode": "118523", "showMarker": false}}, {"geometry": {"type": "Point", "coordinates": [103.953024503826, 1.34270618643901]}, "type": "Feature", "properties": {"binType": "ewaste", "address": "Eastpoint Mall, 3 Simei Street 6", "postcode": "528833", "showMarker": false}}, {"geometry": {"type": "Point", "coordinates": [103.905663785857, 1.40440162125556]}, "type": "Feature", "properties": {"binType": "ewaste", "address": "Punggol Coral Tree RC, 301C Punggol Central, #01-745", "postcode": "823301", "showMarker": false}}, {"geometry": {"type": "Point", "coordinates": [103.901186083679, 1.41090728243885]}, "type": "Feature", "properties": {"binType": "ewaste", "address": "Punggol Parc Terrace RC, 312B Sumang Link, #01-171", "postcode": "823312", "showMarker": false}}, {"geometry": {"type": "Point", "coordinates": [103.887727364285, 1.35313871558187]}, "type": "Feature", "properties": {"binType": "ewaste", "address": "Paya Lebar Zone 5 RC, 116 Hougang Avenue 1, #01-1206", "postcode": "530116", "showMarker": false}}, {"geometry": {"type": "Point", "coordinates": [103.905022045791, 1.38814105023846]}, "type": "Feature", "properties": {"binType": "ewaste", "address": "Rivervale Spring RC, 135 Rivervale Street, #01-730", "postcode": "540135", "showMarker": false}}, {"geometry": {"type": "Point", "coordinates": [103.905458978888, 1.39454067766739]}, "type": "Feature", "properties": {"binType": "ewaste", "address": "Rivervale Vista RC, 188B Rivervale Drive, #01-1076", "postcode": "542188", "showMarker": false}}, {"geometry": {"type": "Point", "coordinates": [103.893923648496, 1.38831310758384]}, "type": "Feature", "properties": {"binType": "ewaste", "address": "Compassvale Southgate RC, 201B Compassvale Drive, #01-545", "postcode": "542201", "showMarker": false}}, {"geometry": {"type": "Point", "coordinates": [103.848083335838, 1.38034090667762]}, "type": "Feature", "properties": {"binType": "ewaste", "address": "Nanyang Polytechnic, 180 Ang Mo Kio Avenue 8", "postcode": "569830", "showMarker": false}}, {"geometry": {"type": "Point", "coordinates": [103.785688739235, 1.43600784517148]}, "type": "Feature", "properties": {"binType": "ewaste", "address": "Causeway Point, M1 Shop, 1 Woodlands Square, #03-01", "postcode": "738099", "showMarker": false}}, {"geometry": {"type": "Point", "coordinates": [103.947576316653, 1.33089001822919]}, "type": "Feature", "properties": {"binType": "ewaste", "address": "Shell Simpang Bedok, 331 Bedok Road", "postcode": "469504", "showMarker": false}}, {"geometry": {"type": "Point", "coordinates": [103.701211185996, 1.350092212218]}, "type": "Feature", "properties": {"binType": "ewaste", "address": "Shell Jurong, 21 Jurong West Avenue 5", "postcode": "649481", "showMarker": false}}, {"geometry": {"type": "Point", "coordinates": [103.844671565605, 1.36783749214661]}, "type": "Feature", "properties": {"binType": "ewaste", "address": "Shell Ang Mo Kio, 3535 Ang Mo Kio Avenue 6", "postcode": "569839", "showMarker": false}}, {"geometry": {"type": "Point", "coordinates": [103.833011169563, 1.43080204992238]}, "type": "Feature", "properties": {"binType": "ewaste", "address": "Shell Yishun, 1 Yishun Street 11", "postcode": "768642", "showMarker": false}}, {"geometry": {"type": "Point", "coordinates": [103.764888536618, 1.34762671975306]}, "type": "Feature", "properties": {"binType": "ewaste", "address": "Shell Bukit Batok (Ave 6), 28 Bukit Batok East Avenue 6", "postcode": "659760", "showMarker": false}}, {"geometry": {"type": "Point", "coordinates": [103.877066496517, 1.38356212841512]}, "type": "Feature", "properties": {"binType": "ewaste", "address": "Shell Seletar Hills, 298 Yio Chu Kang Road", "postcode": "805908", "showMarker": false}}, {"geometry": {"type": "Point", "coordinates": [103.834676129269, 1.30242416552881]}, "type": "Feature", "properties": {"binType": "ewaste", "address": "Best Denki (Ngee Ann City), 391 Orchard Road, #05-01/04", "postcode": "238872", "showMarker": false}}, {"geometry": {"type": "Point", "coordinates": [103.70646088413, 1.3398301525794]}, "type": "Feature", "properties": {"binType": "ewaste", "address": "Jurong Point, 1 Jurong West Central 2", "postcode": "648886", "showMarker": false}}, {"geometry": {"type": "Point", "coordinates": [103.947687834643, 1.3458133461735]}, "type": "Feature", "properties": {"binType": "ewaste", "address": "Tampines Changkat CC, 13 Tampines Street 11", "postcode": "529453", "showMarker": false}}, {"geometry": {"type": "Point", "coordinates": [103.967222284047, 1.36579413360965]}, "type": "Feature", "properties": {"binType": "ewaste", "address": "Shell Pasir Ris, 1 New Loyang Link", "postcode": "506931", "showMarker": false}}, {"geometry": {"type": "Point", "coordinates": [103.914059785087, 1.39550059524015]}, "type": "Feature", "properties": {"binType": "ewaste", "address": "Punggol Gardens RC, 163A Punggol Central, #01-177", "postcode": "821163", "showMarker": false}}, {"geometry": {"type": "Point", "coordinates": [103.908973751235, 1.39740420680146]}, "type": "Feature", "properties": {"binType": "ewaste", "address": "Punggol Oasis RC, 175A Punggol Central, #01-569", "postcode": "821175", "showMarker": false}}, {"geometry": {"type": "Point", "coordinates": [103.906485657684, 1.40137200290519]}, "type": "Feature", "properties": {"binType": "ewaste", "address": "Punggol Periwinkle RC, 195B Punggol Road, #01-516", "postcode": "822195", "showMarker": false}}, {"geometry": {"type": "Point", "coordinates": [103.912312517387, 1.4066527426056]}, "type": "Feature", "properties": {"binType": "ewaste", "address": "Punggol Meadows RC, 642D Punggol Drive, #01-373", "postcode": "822672", "showMarker": false}}, {"geometry": {"type": "Point", "coordinates": [103.906569315356, 1.39809045829695]}, "type": "Feature", "properties": {"binType": "ewaste", "address": "Punggol Cove RC, 101C Punggol Field, #01-464", "postcode": "823101", "showMarker": false}}, {"geometry": {"type": "Point", "coordinates": [103.91091439013, 1.40066201488313]}, "type": "Feature", "properties": {"binType": "ewaste", "address": "Punggol Horizon RC, 622C Punggol Central, #01-288", "postcode": "823622", "showMarker": false}}, {"geometry": {"type": "Point", "coordinates": [103.910981498574, 1.39378388524043]}, "type": "Feature", "properties": {"binType": "ewaste", "address": "Punggol Coral RC, 126D Edgedale Plains, #01-324", "postcode": "824126", "showMarker": false}}, {"geometry": {"type": "Point", "coordinates": [103.913464113125, 1.39360624159956]}, "type": "Feature", "properties": {"binType": "ewaste", "address": "Punggol 21 CC, 80 Punggol Field, #01-01", "postcode": "828815", "showMarker": false}}, {"geometry": {"type": "Point", "coordinates": [103.807875435609, 1.27486265663736]}, "type": "Feature", "properties": {"binType": "ewaste", "address": "Telok Blangah CC, 450 Telok Blangah Street 31", "postcode": "108943", "showMarker": false}}, {"geometry": {"type": "Point", "coordinates": [103.855923563242, 1.29981638982486]}, "type": "Feature", "properties": {"binType": "ewaste", "address": "Capitaland Bugis Junction, 230 Victoria Street", "postcode": "188024", "showMarker": false}}, {"geometry": {"type": "Point", "coordinates": [103.845177377351, 1.27481631582903]}, "type": "Feature", "properties": {"binType": "ewaste", "address": "Mapletree Anson, 60 Anson Road", "postcode": "79914", "showMarker": false}}, {"geometry": {"type": "Point", "coordinates": [103.849796103257, 1.3319945583363]}, "type": "Feature", "properties": {"binType": "ewaste", "address": "Courts (Toa Payoh), 460 Toa Payoh Lorong 6", "postcode": "310460", "showMarker": false}}, {"geometry": {"type": "Point", "coordinates": [103.905559610778, 1.335730583446]}, "type": "Feature", "properties": {"binType": "ewaste", "address": "Techlink Building, 31 Kaki Bukit Road 3", "postcode": "417818", "showMarker": false}}, {"geometry": {"type": "Point", "coordinates": [103.963653904182, 1.33491977308775]}, "type": "Feature", "properties": {"binType": "ewaste", "address": "UE BizHub EAST - 1, 6 Changi Business Park Avenue 1", "postcode": "486018", "showMarker": false}}, {"geometry": {"type": "Point", "coordinates": [103.963653904182, 1.33491977308775]}, "type": "Feature", "properties": {"binType": "ewaste", "address": "UE BizHub EAST - 2, 8 Changi Business Park Avenue 1", "postcode": "486018", "showMarker": false}}, {"geometry": {"type": "Point", "coordinates": [103.744950384161, 1.38506835667563]}, "type": "Feature", "properties": {"binType": "ewaste", "address": "Capitaland Lot One Shoppers\u00e2\u20ac\u2122 Mall, 21 Choa Chu Kang Avenue 4", "postcode": "689812", "showMarker": false}}, {"geometry": {"type": "Point", "coordinates": [103.788556168244, 1.29843333674668]}, "type": "Feature", "properties": {"binType": "ewaste", "address": "Fusionopolis Two Innovis, 2 Fusionopolis Way", "postcode": "138634", "showMarker": false}}, {"geometry": {"type": "Point", "coordinates": [103.748074843016, 1.33225989873968]}, "type": "Feature", "properties": {"binType": "ewaste", "address": "Fisher Clinical Services Pte Ltd (Thermofisher Scientific), 10 Toh Guan Road, #03-12 11/12 Lobby C", "postcode": "608838", "showMarker": false}}, {"geometry": {"type": "Point", "coordinates": [103.83610405607, 1.31056745258169]}, "type": "Feature", "properties": {"binType": "ewaste", "address": "Environment Building (MSE/NEA), 40 Scotts Road, #01", "postcode": "228231", "showMarker": false}}, {"geometry": {"type": "Point", "coordinates": [103.848843026999, 1.34985304885287]}, "type": "Feature", "properties": {"binType": "ewaste", "address": "Bishan Public Library, 5 Bishan\u00c2\u00a0Place, #01-01", "postcode": "579841", "showMarker": false}}, {"geometry": {"type": "Point", "coordinates": [103.749021980031, 1.35018915982967]}, "type": "Feature", "properties": {"binType": "ewaste", "address": "Bukit Batok Public Library, 1 Bukit Batok\u00c2\u00a0Central Link, #03-01", "postcode": "658713", "showMarker": false}}, {"geometry": {"type": "Point", "coordinates": [103.763961852618, 1.38051732815914]}, "type": "Feature", "properties": {"binType": "ewaste", "address": "Bukit Panjang Public Library, 1 Jelebu Road, #04-04 & 16/17", "postcode": "677743", "showMarker": false}}, {"geometry": {"type": "Point", "coordinates": [103.89366161203, 1.37231185642959]}, "type": "Feature", "properties": {"binType": "ewaste", "address": "Cheng San Public Library, 90 Hougang Avenue, #03-11", "postcode": "538766", "showMarker": false}}, {"geometry": {"type": "Point", "coordinates": [103.744950384161, 1.38506835667563]}, "type": "Feature", "properties": {"binType": "ewaste", "address": "Courts (Lot One), 21 Choa Chu Kang Avenue 4, #03-01", "postcode": "689812", "showMarker": false}}, {"geometry": {"type": "Point", "coordinates": [103.744950384161, 1.38506835667563]}, "type": "Feature", "properties": {"binType": "ewaste", "address": "Choa Chu Kang Public Library, 21 Choa Chu Kang Ave 4, #04-01/02", "postcode": "689812", "showMarker": false}}, {"geometry": {"type": "Point", "coordinates": [103.764248205662, 1.31485321802259]}, "type": "Feature", "properties": {"binType": "ewaste", "address": "Clementi Public Library, 3155 Commonwealth Avenue West, #05-13/14/15", "postcode": "129588", "showMarker": false}}, {"geometry": {"type": "Point", "coordinates": [103.885837275913, 1.3174429839463]}, "type": "Feature", "properties": {"binType": "ewaste", "address": "Geylang East Public Library, 50 Geylang East\u00c2\u00a0Ave 1", "postcode": "389777", "showMarker": false}}, {"geometry": {"type": "Point", "coordinates": [103.739490178697, 1.33288484168537]}, "type": "Feature", "properties": {"binType": "ewaste", "address": "Jurong Regional Library, 21 Jurong East Central 1", "postcode": "609732", "showMarker": false}}, {"geometry": {"type": "Point", "coordinates": [103.704452685304, 1.34046956412475]}, "type": "Feature", "properties": {"binType": "ewaste", "address": "Jurong West Public Library, 60 Jurong West Central 3, #01-03", "postcode": "648346", "showMarker": false}}, {"geometry": {"type": "Point", "coordinates": [103.855665762299, 1.2895095530213]}, "type": "Feature", "properties": {"binType": "ewaste", "address": "Library@Esplanade, 8 Raffles Avenue, #03-01", "postcode": "39802", "showMarker": false}}, {"geometry": {"type": "Point", "coordinates": [103.9095452826, 1.30482859822658]}, "type": "Feature", "properties": {"binType": "ewaste", "address": "Marine Parade Public Library, 278 Marine Parade\u00c2\u00a0Road, #01-02", "postcode": "449282", "showMarker": false}}, {"geometry": {"type": "Point", "coordinates": [103.853942302347, 1.297489753102]}, "type": "Feature", "properties": {"binType": "ewaste", "address": "National Library Building, 100 Victoria Street", "postcode": "188064", "showMarker": false}}, {"geometry": {"type": "Point", "coordinates": [103.939683594446, 1.35349615471813]}, "type": "Feature", "properties": {"binType": "ewaste", "address": "Tampines Regional Library, 1 Tampines Walk, #02-01", "postcode": "528523", "showMarker": false}}, {"geometry": {"type": "Point", "coordinates": [103.85049180316, 1.33352076184374]}, "type": "Feature", "properties": {"binType": "ewaste", "address": "Toa Payoh Public Library, 6 Toa Payoh Central", "postcode": "319191", "showMarker": false}}, {"geometry": {"type": "Point", "coordinates": [103.805430802302, 1.29864021099395]}, "type": "Feature", "properties": {"binType": "ewaste", "address": "Queenstown Public Library, 53 Margaret Drive", "postcode": "149297", "showMarker": false}}, {"geometry": {"type": "Point", "coordinates": [103.786619621971, 1.43507788583775]}, "type": "Feature", "properties": {"binType": "ewaste", "address": "Woodlands Regional Library, 900 900 South\u00c2\u00a0Woodlands\u00c2\u00a0Drive, #01-03", "postcode": "730900", "showMarker": false}}, {"geometry": {"type": "Point", "coordinates": [103.835776496688, 1.42969847969486]}, "type": "Feature", "properties": {"binType": "ewaste", "address": "Yishun Public Library, 930 Yishun Ave 2, #04-01", "postcode": "769098", "showMarker": false}}, {"geometry": {"type": "Point", "coordinates": [103.909204129493, 1.40528963821515]}, "type": "Feature", "properties": {"binType": "ewaste", "address": "Punggol Sunrise RC, 677A Punggol Drive, #01-800", "postcode": "821677", "showMarker": false}}, {"geometry": {"type": "Point", "coordinates": [103.899613560858, 1.40076048643597]}, "type": "Feature", "properties": {"binType": "ewaste", "address": "Punggol Seas RC, 211C Punggol Walk, #01-645", "postcode": "823211", "showMarker": false}}, {"geometry": {"type": "Point", "coordinates": [103.944284635068, 1.34607674987414]}, "type": "Feature", "properties": {"binType": "ewaste", "address": "Tampines Blk 139, 139 Tampines St 11", "postcode": "521139", "showMarker": false}}, {"geometry": {"type": "Point", "coordinates": [103.905113592255, 1.30119130748691]}, "type": "Feature", "properties": {"binType": "ewaste", "address": "Best Denki (Parkway Parade), 80 Marine Parade Road, #03-29/30", "postcode": "449269", "showMarker": false}}, {"geometry": {"type": "Point", "coordinates": [103.848878825973, 1.34108764463634]}, "type": "Feature", "properties": {"binType": "ewaste", "address": "Shell Toa Payoh, 248 Toa Payoh Lorong 1", "postcode": "319755", "showMarker": false}}, {"geometry": {"type": "Point", "coordinates": [103.926540994196, 1.31255297266314]}, "type": "Feature", "properties": {"binType": "ewaste", "address": "Shell Siglap, 40 Upper East Coast Road", "postcode": "455212", "showMarker": false}}, {"geometry": {"type": "Point", "coordinates": [103.843656770909, 1.32021099973819]}, "type": "Feature", "properties": {"binType": "ewaste", "address": "Velocity @ Novena Square, 238 Thomson Road", "postcode": "307683", "showMarker": false}}, {"geometry": {"type": "Point", "coordinates": [103.946602685067, 1.35736478775974]}, "type": "Feature", "properties": {"binType": "ewaste", "address": "Tampines North CC, 2 Tampines Street 41", "postcode": "529204", "showMarker": false}}, {"geometry": {"type": "Point", "coordinates": [103.749021980031, 1.35018915982967]}, "type": "Feature", "properties": {"binType": "ewaste", "address": "West Mall, M1 Shop, 1 Bukit Batok Central Link, #01-16/17", "postcode": "658713", "showMarker": false}}, {"geometry": {"type": "Point", "coordinates": [103.864557912045, 1.34458352593094]}, "type": "Feature", "properties": {"binType": "ewaste", "address": "Shell Braddell, 110 Braddell Road", "postcode": "359914", "showMarker": false}}, {"geometry": {"type": "Point", "coordinates": [103.850204545922, 1.33493451709456]}, "type": "Feature", "properties": {"binType": "ewaste", "address": "Toa Payoh Central CC, 93 Toa Payoh Central", "postcode": "319194", "showMarker": false}}, {"geometry": {"type": "Point", "coordinates": [103.898358930385, 1.40331377225975]}, "type": "Feature", "properties": {"binType": "ewaste", "address": "Punggol SapphiRes RC, 268D Punggol Field, #01-173", "postcode": "824268", "showMarker": false}}, {"geometry": {"type": "Point", "coordinates": [103.856421771906, 1.31130516479713]}, "type": "Feature", "properties": {"binType": "ewaste", "address": "180 City Square Mall, L2 Customer Service Counter", "postcode": "208539", "showMarker": false}}, {"geometry": {"type": "Point", "coordinates": [103.952816065919, 1.35001073882934]}, "type": "Feature", "properties": {"binType": "ewaste", "address": "Tampines Changkat Zone 4 RC, 285 Tampines Street 22", "postcode": "520285", "showMarker": false}}, {"geometry": {"type": "Point", "coordinates": [103.959873499831, 1.35693800555856]}, "type": "Feature", "properties": {"binType": "ewaste", "address": "Tampines Changkat Zone 8 RC, 364 Tampines Street 34", "postcode": "520364", "showMarker": false}}, {"geometry": {"type": "Point", "coordinates": [103.933499184206, 1.35670605826191]}, "type": "Feature", "properties": {"binType": "ewaste", "address": "Tampines Courtview RC, 730 Tampines Street 71, #01-61", "postcode": "520730", "showMarker": false}}, {"geometry": {"type": "Point", "coordinates": [103.934383364035, 1.35904159378304]}, "type": "Feature", "properties": {"binType": "ewaste", "address": "Tampines Greenvale RC, 736 Tampines Street 72, #01-28", "postcode": "520736", "showMarker": false}}, {"geometry": {"type": "Point", "coordinates": [103.931478811435, 1.35132607390816]}, "type": "Feature", "properties": {"binType": "ewaste", "address": "Tampines Spring RC, 880 Tampines Avenue 8, #01-278", "postcode": "520880", "showMarker": false}}, {"geometry": {"type": "Point", "coordinates": [103.749456841487, 1.35905888839505]}, "type": "Feature", "properties": {"binType": "ewaste", "address": "Hong Kah North CC, 30 Bukit Batok Street 31", "postcode": "659440", "showMarker": false}}, {"geometry": {"type": "Point", "coordinates": [103.859378979813, 1.33489037046643]}, "type": "Feature", "properties": {"binType": "ewaste", "address": "Toa Payoh South CC, 1999 Lorong 8 Toa Payoh", "postcode": "319258", "showMarker": false}}, {"geometry": {"type": "Point", "coordinates": [103.830391169282, 1.28569738018405]}, "type": "Feature", "properties": {"binType": "ewaste", "address": "Tiong Bahru, 28 Tiong Bahru Road, #01-141/147", "postcode": "163028", "showMarker": false}}, {"geometry": {"type": "Point", "coordinates": [103.805009965174, 1.28861468740199]}, "type": "Feature", "properties": {"binType": "ewaste", "address": "Anchorpoint, 370 Alexandra Road", "postcode": "159953", "showMarker": false}}, {"geometry": {"type": "Point", "coordinates": [103.840668130337, 1.36683348076669]}, "type": "Feature", "properties": {"binType": "ewaste", "address": "Ang Mo Kio CC, 795 Ang Mo Kio Avenue 1", "postcode": "569976", "showMarker": false}}, {"geometry": {"type": "Point", "coordinates": [103.747540191939, 1.3207993044286]}, "type": "Feature", "properties": {"binType": "ewaste", "address": "Ayer Rajah CC, 150 Pandan Gardens", "postcode": "609335", "showMarker": false}}, {"geometry": {"type": "Point", "coordinates": [103.91514355252, 1.33255277788544]}, "type": "Feature", "properties": {"binType": "ewaste", "address": "Eunos CC, 180 Bedok Reservoir Road", "postcode": "479220", "showMarker": false}}, {"geometry": {"type": "Point", "coordinates": [103.80192217121, 1.27730534772862]}, "type": "Feature", "properties": {"binType": "ewaste", "address": "Alexandra Point, 438 Alexandra Road", "postcode": "119958", "showMarker": false}}, {"geometry": {"type": "Point", "coordinates": [103.801126950046, 1.27367657754603]}, "type": "Feature", "properties": {"binType": "ewaste", "address": "Alexandra Retail Centre, 460 Alexandra Road", "postcode": "119963", "showMarker": false}}, {"geometry": {"type": "Point", "coordinates": [103.813268766733, 1.3248369907728]}, "type": "Feature", "properties": {"binType": "ewaste", "address": "Adam Road Food Centre, 2 Adam Road", "postcode": "289877", "showMarker": false}}, {"geometry": {"type": "Point", "coordinates": [103.953123216216, 1.36128481195942]}, "type": "Feature", "properties": {"binType": "ewaste", "address": "Tampines Blk 478, 478 Tampines St 44", "postcode": "520478", "showMarker": false}}, {"geometry": {"type": "Point", "coordinates": [103.934649104142, 1.34841976062344]}, "type": "Feature", "properties": {"binType": "ewaste", "address": "Tampines Blk 821, 821 Tampines St 81", "postcode": "520821", "showMarker": false}}, {"geometry": {"type": "Point", "coordinates": [103.856421771906, 1.31130516479713]}, "type": "Feature", "properties": {"binType": "ewaste", "address": "City Square Mall, 180 Kitchener Road", "postcode": "208539", "showMarker": false}}, {"geometry": {"type": "Point", "coordinates": [103.797369396622, 1.44005836545125]}, "type": "Feature", "properties": {"binType": "ewaste", "address": "Woodlands Zone 5 RC, 708 Woodlands Drive 70, #01-19", "postcode": "730708", "showMarker": false}}, {"geometry": {"type": "Point", "coordinates": [103.790761501739, 1.43966937731992]}, "type": "Feature", "properties": {"binType": "ewaste", "address": "Woodlands Zone 1 RC, 832 Woodlands Street 83, #01-65", "postcode": "730832", "showMarker": false}}, {"geometry": {"type": "Point", "coordinates": [103.843097938495, 1.31134294489212]}, "type": "Feature", "properties": {"binType": "ewaste", "address": "Shell Newton, 150 Bukit Timah Road", "postcode": "229846", "showMarker": false}}, {"geometry": {"type": "Point", "coordinates": [103.929182078245, 1.32479360710739]}, "type": "Feature", "properties": {"binType": "ewaste", "address": "Bedok Mall, 311 New Upper Changi Road, #B1-02/02A", "postcode": "467360", "showMarker": false}}, {"geometry": {"type": "Point", "coordinates": [103.705351000578, 1.33931503396417]}, "type": "Feature", "properties": {"binType": "ewaste", "address": "Jurong Point Shopping Centre, 63 Jurong Point West Central 3, #B1-98/99", "postcode": "648331", "showMarker": false}}, {"geometry": {"type": "Point", "coordinates": [103.818261307253, 1.26486180966003]}, "type": "Feature", "properties": {"binType": "ewaste", "address": "Keppel Bay Tower, 1 Harbourfront Avenue", "postcode": "98632", "showMarker": false}}, {"geometry": {"type": "Point", "coordinates": [103.81902706845, 1.26499758815146]}, "type": "Feature", "properties": {"binType": "ewaste", "address": "Harbourfront Tower One, 1 Harbourfront Place", "postcode": "98633", "showMarker": false}}, {"geometry": {"type": "Point", "coordinates": [103.845580700883, 1.37479009534678]}, "type": "Feature", "properties": {"binType": "ewaste", "address": "Ang Mo Kio Public Library, 4300 Ang Mo Kio\u00c2\u00a0Avenue 6", "postcode": "569842", "showMarker": false}}, {"geometry": {"type": "Point", "coordinates": [103.931620621577, 1.32698498848449]}, "type": "Feature", "properties": {"binType": "ewaste", "address": "Bedok Public Library, 11 Bedok North Street 1, #02-03 & #03-04", "postcode": "469662", "showMarker": false}}, {"geometry": {"type": "Point", "coordinates": [103.839555016202, 1.24715040902379]}, "type": "Feature", "properties": {"binType": "ewaste", "address": "Sentosa Cove Village, 1 Cove Avenue, #02-05", "postcode": "98537", "showMarker": false}}, {"geometry": {"type": "Point", "coordinates": [103.848430082687, 1.35017242685302]}, "type": "Feature", "properties": {"binType": "ewaste", "address": "Capitaland Junction 8, 9 Bishan Place", "postcode": "579837", "showMarker": false}}, {"geometry": {"type": "Point", "coordinates": [103.799423220223, 1.27739855758897]}, "type": "Feature", "properties": {"binType": "ewaste", "address": "Alexandra Technopark A, 438B Alexandra Road, Alexandra Technopark A", "postcode": "119968", "showMarker": false}}, {"geometry": {"type": "Point", "coordinates": [103.949793334969, 1.34518427892421]}, "type": "Feature", "properties": {"binType": "ewaste", "address": "Tampines Changkat Zone 5 RC, 124 Tampines Street 11", "postcode": "521124", "showMarker": false}}, {"geometry": {"type": "Point", "coordinates": [103.850982351781, 1.28433993485695]}, "type": "Feature", "properties": {"binType": "ewaste", "address": "One Raffles Place, M1 Shop, 1 Raffles Place, #02-25/26", "postcode": "48616", "showMarker": false}}, {"geometry": {"type": "Point", "coordinates": [103.764248205662, 1.31485321802259]}, "type": "Feature", "properties": {"binType": "ewaste", "address": "Clementi Mall, M1 Shop, 3155 Commonwealth Ave West, #04-44/45", "postcode": "129588", "showMarker": false}}, {"geometry": {"type": "Point", "coordinates": [103.835240310126, 1.30372321372467]}, "type": "Feature", "properties": {"binType": "ewaste", "address": "The Paragon, M1 Shop, 290 Orchard Road, #B1-28/29", "postcode": "238859", "showMarker": false}}, {"geometry": {"type": "Point", "coordinates": [103.905113592255, 1.30119130748691]}, "type": "Feature", "properties": {"binType": "ewaste", "address": "Parkway Parade, M1 Shop, 80 Marine Parade Road, #02-24", "postcode": "449269", "showMarker": false}}, {"geometry": {"type": "Point", "coordinates": [103.792240772323, 1.42749277602918]}, "type": "Feature", "properties": {"binType": "ewaste", "address": "Ace The Place CC, 120 Woodlands Avenue 1", "postcode": "739069", "showMarker": false}}, {"geometry": {"type": "Point", "coordinates": [103.838488083545, 1.43102087212489]}, "type": "Feature", "properties": {"binType": "ewaste", "address": "Nee Soon East CC, 1 Yishun Avenue 9", "postcode": "768893", "showMarker": false}}, {"geometry": {"type": "Point", "coordinates": [103.901988174009, 1.40653610720599]}, "type": "Feature", "properties": {"binType": "ewaste", "address": "Waterway Point, 83 Punggol Central", "postcode": "828761", "showMarker": false}}, {"geometry": {"type": "Point", "coordinates": [103.854867046362, 1.29846962637]}, "type": "Feature", "properties": {"binType": "ewaste", "address": "Bugis Junction, M1 Shop, 80 Middle Road, #01-81/82", "postcode": "188966", "showMarker": false}}, {"geometry": {"type": "Point", "coordinates": [103.855411182582, 1.299112870967]}, "type": "Feature", "properties": {"binType": "ewaste", "address": "Bugis Junction (StarHub Shop), 230 Victoria Street, #01-83/84", "postcode": "188021", "showMarker": false}}, {"geometry": {"type": "Point", "coordinates": [103.845047580881, 1.30074770847155]}, "type": "Feature", "properties": {"binType": "ewaste", "address": "Capitaland Plaza Singapura, 68 Orchard Road", "postcode": "238839", "showMarker": false}}, {"geometry": {"type": "Point", "coordinates": [103.90129593037, 1.40252317335343]}, "type": "Feature", "properties": {"binType": "ewaste", "address": "Punggol Gems RC, 273D Punggol Place, #01-888", "postcode": "824273", "showMarker": false}}, {"geometry": {"type": "Point", "coordinates": [103.917700398061, 1.32876668867365]}, "type": "Feature", "properties": {"binType": "ewaste", "address": "Chai Chee, 502 Chai Chee Lane", "postcode": "469025", "showMarker": false}}, {"geometry": {"type": "Point", "coordinates": [103.740167234363, 1.33333039944934]}, "type": "Feature", "properties": {"binType": "ewaste", "address": "Capitaland JCube, 2 Jurong East Central 1", "postcode": "609731", "showMarker": false}}, {"geometry": {"type": "Point", "coordinates": [103.790058546273, 1.2980894051995]}, "type": "Feature", "properties": {"binType": "ewaste", "address": "Solaris building - Solaris management office (SB Property Services Pte Ltd), 1 Fusionopolis Walk", "postcode": "138628", "showMarker": false}}, {"geometry": {"type": "Point", "coordinates": [103.792498872096, 1.30342670998306]}, "type": "Feature", "properties": {"binType": "ewaste", "address": "Biopolis phase 1 \u00e2\u20ac\u201c level 1, 30 Biopolis Street Matrix Block (Block 3)", "postcode": "138671", "showMarker": false}}, {"geometry": {"type": "Point", "coordinates": [103.835585516688, 1.28167037684922]}, "type": "Feature", "properties": {"binType": "ewaste", "address": "Academia@SGH, 20 College Road", "postcode": "169856", "showMarker": false}}, {"geometry": {"type": "Point", "coordinates": [103.840025092306, 1.30289720484194]}, "type": "Feature", "properties": {"binType": "ewaste", "address": "51 Cuppage Road, 51 Cuppage Road, #01-06A", "postcode": "229469", "showMarker": false}}, {"geometry": {"type": "Point", "coordinates": [103.825328122484, 1.27337412903551]}, "type": "Feature", "properties": {"binType": "ewaste", "address": "Bukit Purmei Zone A RC, 108 Bukit Purmei Road, #01-129", "postcode": "90108", "showMarker": false}}, {"geometry": {"type": "Point", "coordinates": [103.798887785498, 1.44288019238587]}, "type": "Feature", "properties": {"binType": "ewaste", "address": "Woodlands Zone 6 RC, 728 Woodlands Circle, #01-69", "postcode": "730728", "showMarker": false}}, {"geometry": {"type": "Point", "coordinates": [103.796998851606, 1.43542608539826]}, "type": "Feature", "properties": {"binType": "ewaste", "address": "Woodlands Zone 7 RC, 611 Woodlands Ring Road, #01-211", "postcode": "730611", "showMarker": false}}, {"geometry": {"type": "Point", "coordinates": [103.803192516442, 1.43671737846592]}, "type": "Feature", "properties": {"binType": "ewaste", "address": "Woodlands Zone 8 RC, 638 Woodlands Ring Road, #01-49/51", "postcode": "730638", "showMarker": false}}, {"geometry": {"type": "Point", "coordinates": [103.799117869578, 1.43698595559977]}, "type": "Feature", "properties": {"binType": "ewaste", "address": "Woodlands Zone 9 RC, 656 Woodlands Ring Road, #01-356/358/360", "postcode": "730656", "showMarker": false}}, {"geometry": {"type": "Point", "coordinates": [103.791653660401, 1.30576250051156]}, "type": "Feature", "properties": {"binType": "ewaste", "address": "AET Tankers, The Metropolis Tower 2, 11 North Buona Vista Drive, #15-07", "postcode": "138589", "showMarker": false}}, {"geometry": {"type": "Point", "coordinates": [103.853349301911, 1.28022767255338]}, "type": "Feature", "properties": {"binType": "ewaste", "address": "Marina Bay Link Mall, 8A Marina Boulevard", "postcode": "18984", "showMarker": false}}, {"geometry": {"type": "Point", "coordinates": [103.775701066782, 1.32919199753705]}, "type": "Feature", "properties": {"binType": "ewaste", "address": "Singapore University of Social Sciences, 461 Clementi Road (Blk B Level 1 and Blk C Level 1)", "postcode": "599491", "showMarker": false}}, {"geometry": {"type": "Point", "coordinates": [103.909783037684, 1.30821182282028]}, "type": "Feature", "properties": {"binType": "ewaste", "address": "Shell East Coast, 338 East Coast Road", "postcode": "428961", "showMarker": false}}, {"geometry": {"type": "Point", "coordinates": [103.763423329539, 1.37227098892071]}, "type": "Feature", "properties": {"binType": "ewaste", "address": "Shell Bukit Panjang, 772 Upper Bukit Timah Road", "postcode": "678122", "showMarker": false}}, {"geometry": {"type": "Point", "coordinates": [103.842166354644, 1.3241915067511]}, "type": "Feature", "properties": {"binType": "ewaste", "address": "Shell Thomson Novena, 324 Thomson Road", "postcode": "307672", "showMarker": false}}, {"geometry": {"type": "Point", "coordinates": [103.775415745236, 1.43832533317212]}, "type": "Feature", "properties": {"binType": "ewaste", "address": "Shell Marsiling, 10 Marsiling Road", "postcode": "739109", "showMarker": false}}, {"geometry": {"type": "Point", "coordinates": [103.853536076665, 1.36308867917974]}, "type": "Feature", "properties": {"binType": "ewaste", "address": "Teck Ghee CC, 861 Ang Mo Kio Avenue 10", "postcode": "569734", "showMarker": false}}, {"geometry": {"type": "Point", "coordinates": [103.744727853367, 1.39491758447052]}, "type": "Feature", "properties": {"binType": "ewaste", "address": "Yew Tee CC, 20 Choa Chu Kang Street 52, #01-01", "postcode": "689286", "showMarker": false}}, {"geometry": {"type": "Point", "coordinates": [103.793474578196, 1.44330259673776]}, "type": "Feature", "properties": {"binType": "ewaste", "address": "Woodlands Zone 2 RC, 846 Woodlands Avenue 4, #01-612", "postcode": "730846", "showMarker": false}}, {"geometry": {"type": "Point", "coordinates": [103.790602762447, 1.44479629224386]}, "type": "Feature", "properties": {"binType": "ewaste", "address": "Woodlands Zone 3 RC, 876 Woodlands Street 83, #01-256", "postcode": "730876", "showMarker": false}}, {"geometry": {"type": "Point", "coordinates": [103.788235404817, 1.43973033862036]}, "type": "Feature", "properties": {"binType": "ewaste", "address": "Woodlands Community Club, 1 Woodlands Street 81", "postcode": "738526", "showMarker": false}}, {"geometry": {"type": "Point", "coordinates": [103.802610984283, 1.43904160690114]}, "type": "Feature", "properties": {"binType": "ewaste", "address": "Woodlands Galaxy Community Club, 31 Woodlands Avenue 6", "postcode": "738991", "showMarker": false}}, {"geometry": {"type": "Point", "coordinates": [103.900906243443, 1.40775424589744]}, "type": "Feature", "properties": {"binType": "ewaste", "address": "Punggol Waterway RC, 308A Punggol Walk, #01-288", "postcode": "821308", "showMarker": false}}, {"geometry": {"type": "Point", "coordinates": [103.898407771219, 1.40890165160639]}, "type": "Feature", "properties": {"binType": "ewaste", "address": "Punggol Cascadia RC, 316A Punggol Way, #01-733", "postcode": "821316", "showMarker": false}}, {"geometry": {"type": "Point", "coordinates": [103.907861037621, 1.40442051719719]}, "type": "Feature", "properties": {"binType": "ewaste", "address": "Punggol Damai RC, 613A Punggol Drive, #01-857", "postcode": "821613", "showMarker": false}}, {"geometry": {"type": "Point", "coordinates": [103.8269408132, 1.29301784393151]}, "type": "Feature", "properties": {"binType": "ewaste", "address": "Valley Point, 491 River Valley Road", "postcode": "248371", "showMarker": false}}, {"geometry": {"type": "Point", "coordinates": [103.856411986641, 1.37789203173292]}, "type": "Feature", "properties": {"binType": "ewaste", "address": "ITE College Central (Ang Mo Kio), 2 Ang Mo Kio Drive", "postcode": "567720", "showMarker": false}}, {"geometry": {"type": "Point", "coordinates": [103.808061968709, 1.31883225067726]}, "type": "Feature", "properties": {"binType": "ewaste", "address": "Farrer Gardens RC, 4 Queen\u00e2\u20ac\u2122s Road", "postcode": "260004", "showMarker": false}}, {"geometry": {"type": "Point", "coordinates": [103.886092082636, 1.35779860505296]}, "type": "Feature", "properties": {"binType": "ewaste", "address": "Paya Lebar Kovan CC, 207 Hougang Street 21", "postcode": "530207", "showMarker": false}}, {"geometry": {"type": "Point", "coordinates": [103.944387987324, 1.35267231590699]}, "type": "Feature", "properties": {"binType": "ewaste", "address": "Tampines Mall (StarHub Shop), 4 Tampines Central, #02-26", "postcode": "529510", "showMarker": false}}, {"geometry": {"type": "Point", "coordinates": [103.959716840803, 1.36034647519371]}, "type": "Feature", "properties": {"binType": "ewaste", "address": "Tampines North Zone 7 RC - Exedra Lounge, 497G Tampines Street 45", "postcode": "525497", "showMarker": false}}, {"geometry": {"type": "Point", "coordinates": [103.845389014275, 1.32171597672812]}, "type": "Feature", "properties": {"binType": "ewaste", "address": "Tan Tock Seng Hospital, 11 Jalan Tan Tock Seng", "postcode": "308433", "showMarker": false}}, {"geometry": {"type": "Point", "coordinates": [103.789211186001, 1.31200940949361]}, "type": "Feature", "properties": {"binType": "ewaste", "address": "Ulu Pandan CC, 170 Ghim Moh Road, #01-01", "postcode": "279621", "showMarker": false}}, {"geometry": {"type": "Point", "coordinates": [103.835776496688, 1.42969847969486]}, "type": "Feature", "properties": {"binType": "ewaste", "address": "Northpoint City Shopping Centre, 930 Yishun Avenue 2", "postcode": "769098", "showMarker": false}}, {"geometry": {"type": "Point", "coordinates": [103.906031928713, 1.41011328238339]}, "type": "Feature", "properties": {"binType": "ewaste", "address": "SAFRA Punggol, 9 Sentul Crescent", "postcode": "828654", "showMarker": false}}, {"geometry": {"type": "Point", "coordinates": [103.947630246967, 1.3492087748244]}, "type": "Feature", "properties": {"binType": "ewaste", "address": "Shell Tampines Ave 2, 9 Tampines Avenue 2", "postcode": "529731", "showMarker": false}}, {"geometry": {"type": "Point", "coordinates": [103.738433115564, 1.35022742320362]}, "type": "Feature", "properties": {"binType": "ewaste", "address": "Shell Bukit Batok Road, 11 Bukit Batok West Avenue 3", "postcode": "659166", "showMarker": false}}, {"geometry": {"type": "Point", "coordinates": [103.806843695278, 1.29066104599979]}, "type": "Feature", "properties": {"binType": "ewaste", "address": "Shell Alexandra, 358 Alexandra Road", "postcode": "159950", "showMarker": false}}, {"geometry": {"type": "Point", "coordinates": [103.849984794935, 1.29124400033468]}, "type": "Feature", "properties": {"binType": "ewaste", "address": "Funan Mall, 107 North Bridge Road", "postcode": "179105", "showMarker": false}}, {"geometry": {"type": "Point", "coordinates": [103.912698650056, 1.32315519886988]}, "type": "Feature", "properties": {"binType": "ewaste", "address": "Kampong Kembangan CC, 5 Lengkong Tiga", "postcode": "417408", "showMarker": false}}, {"geometry": {"type": "Point", "coordinates": [103.772396246249, 1.30477687700985]}, "type": "Feature", "properties": {"binType": "ewaste", "address": "NUS U Town - Stephen Riady Centre, 2 College Avenue West", "postcode": "138607", "showMarker": false}}, {"geometry": {"type": "Point", "coordinates": [103.953613072507, 1.36189868576485]}, "type": "Feature", "properties": {"binType": "ewaste", "address": "Tampines North Zone 5 RC, 480 Tampines Street 44", "postcode": "520480", "showMarker": false}}, {"geometry": {"type": "Point", "coordinates": [103.952704907495, 1.36300828886632]}, "type": "Feature", "properties": {"binType": "ewaste", "address": "Tampines North Zone 6 RC, 494B Tampines Avenue 9", "postcode": "520494", "showMarker": false}}, {"geometry": {"type": "Point", "coordinates": [103.841975318466, 1.3194895845632]}, "type": "Feature", "properties": {"binType": "ewaste", "address": "Inland Revenue Authority of Singapore (IRAS), Revenue House, 55 Newton Road", "postcode": "307987", "showMarker": false}}, {"geometry": {"type": "Point", "coordinates": [103.845703220386, 1.27573568080889]}, "type": "Feature", "properties": {"binType": "ewaste", "address": "International Plaza, 10 Anson Road", "postcode": "79903", "showMarker": false}}, {"geometry": {"type": "Point", "coordinates": [103.850509275687, 1.34951161831951]}, "type": "Feature", "properties": {"binType": "ewaste", "address": "Bishan CC, 51 Bishan Street 13", "postcode": "579799", "showMarker": false}}, {"geometry": {"type": "Point", "coordinates": [103.81444834816, 1.28978711891653]}, "type": "Feature", "properties": {"binType": "ewaste", "address": "Leng Kee CC, 400 Lengkok Bahru", "postcode": "159049", "showMarker": false}}, {"geometry": {"type": "Point", "coordinates": [103.9095452826, 1.30482859822658]}, "type": "Feature", "properties": {"binType": "ewaste", "address": "Marine Parade CC, 278 Marine Parade Road", "postcode": "449282", "showMarker": false}}, {"geometry": {"type": "Point", "coordinates": [103.882894179307, 1.37514897825787]}, "type": "Feature", "properties": {"binType": "ewaste", "address": "Ci Yuan CC, 51 Hougang Avenue 9, #01-01", "postcode": "538776", "showMarker": false}}, {"geometry": {"type": "Point", "coordinates": [103.89366161203, 1.37231185642959]}, "type": "Feature", "properties": {"binType": "ewaste", "address": "Hougang Mall, 90 Hougang Avenue 10", "postcode": "538766", "showMarker": false}}, {"geometry": {"type": "Point", "coordinates": [103.893001336131, 1.39429941158945]}, "type": "Feature", "properties": {"binType": "ewaste", "address": "Sengkang General Hospital, 110 Sengkang East Way", "postcode": "544886", "showMarker": false}}, {"geometry": {"type": "Point", "coordinates": [103.873890977742, 1.37360010030912]}, "type": "Feature", "properties": {"binType": "ewaste", "address": "Hwi Yoh CC, 535 Serangoon North Avenue 4, #01-179", "postcode": "550535", "showMarker": false}}, {"geometry": {"type": "Point", "coordinates": [103.87170454945, 1.35043817177432]}, "type": "Feature", "properties": {"binType": "ewaste", "address": "Nex, 23 Serangoon Central, #04-72/72A", "postcode": "556083", "showMarker": false}}, {"geometry": {"type": "Point", "coordinates": [103.802721060087, 1.43475840112514]}, "type": "Feature", "properties": {"binType": "ewaste", "address": "Woodlands, 11 Woodland Cl", "postcode": "737853", "showMarker": false}}, {"geometry": {"type": "Point", "coordinates": [103.950148200773, 1.35955258017468]}, "type": "Feature", "properties": {"binType": "ewaste", "address": "Tampines North Zone 3 RC, 430 Tampines Street 41", "postcode": "520430", "showMarker": false}}, {"geometry": {"type": "Point", "coordinates": [103.929182078245, 1.32479360710739]}, "type": "Feature", "properties": {"binType": "ewaste", "address": "Capitaland Bedok Mall, 311 New Upper Changi Road", "postcode": "467360", "showMarker": false}}, {"geometry": {"type": "Point", "coordinates": [103.905113592255, 1.30119130748691]}, "type": "Feature", "properties": {"binType": "ewaste", "address": "Parkway Parade (Starhub Shop), 80 Marine Parade Road, #B1-30/31/32", "postcode": "449269", "showMarker": false}}, {"geometry": {"type": "Point", "coordinates": [103.746558072887, 1.39730190406931]}, "type": "Feature", "properties": {"binType": "ewaste", "address": "Yew Tee Point, 21 Choa Chu Kang North 6", "postcode": "689578", "showMarker": false}}, {"geometry": {"type": "Point", "coordinates": [103.841428124035, 1.38151727157775]}, "type": "Feature", "properties": {"binType": "ewaste", "address": "Yio Chu Kang CC, 50 Ang Mo Kio Street 61", "postcode": "569163", "showMarker": false}}, {"geometry": {"type": "Point", "coordinates": [103.737065915264, 1.33997285278881]}, "type": "Feature", "properties": {"binType": "ewaste", "address": "Yuhua CC, 90 Boon Lay Way", "postcode": "609958", "showMarker": false}}, {"geometry": {"type": "Point", "coordinates": [103.866524274095, 1.36386438560869]}, "type": "Feature", "properties": {"binType": "ewaste", "address": "Serangoon Garden, 54 Serangoon Garden Way", "postcode": "555950", "showMarker": false}}, {"geometry": {"type": "Point", "coordinates": [103.80130510766, 1.29915022797049]}, "type": "Feature", "properties": {"binType": "ewaste", "address": "Queenstown CC, 365 Commonwealth Ave", "postcode": "149732", "showMarker": false}}, {"geometry": {"type": "Point", "coordinates": [103.826935084287, 1.28646345318687]}, "type": "Feature", "properties": {"binType": "ewaste", "address": "Tiong Bahru Plaza & Central Plaza, 302 Tiong Bahru Road", "postcode": "168732", "showMarker": false}}, {"geometry": {"type": "Point", "coordinates": [103.85470024903, 1.33627489206396]}, "type": "Feature", "properties": {"binType": "ewaste", "address": "Toa Payoh East CC, 160 Lorong 6 Toa Payoh", "postcode": "319380", "showMarker": false}}, {"geometry": {"type": "Point", "coordinates": [103.855646806615, 1.33950921284879]}, "type": "Feature", "properties": {"binType": "ewaste", "address": "Toa Payoh East Zone 1, 225 Toa Payoh Lor 8, #01-52", "postcode": "310225", "showMarker": false}}, {"geometry": {"type": "Point", "coordinates": [103.900312365788, 1.38349233371644]}, "type": "Feature", "properties": {"binType": "ewaste", "address": "Rivervale Court Residents\u00e2\u20ac\u2122 Committee, 110 Rivervale Walk", "postcode": "540110", "showMarker": false}}, {"geometry": {"type": "Point", "coordinates": [103.863597858268, 1.30279521839327]}, "type": "Feature", "properties": {"binType": "ewaste", "address": "Kampong Glam CC, 385 Beach Road", "postcode": "199581", "showMarker": false}}, {"geometry": {"type": "Point", "coordinates": [103.89366161203, 1.37231185642959]}, "type": "Feature", "properties": {"binType": "ewaste", "address": "Harvey Norman (Hougang Mall), 90 Hougang Avenue 10, #02-13/14/15", "postcode": "538766", "showMarker": false}}, {"geometry": {"type": "Point", "coordinates": [103.749021980031, 1.35018915982967]}, "type": "Feature", "properties": {"binType": "ewaste", "address": "Westmall, 1 Bukit Batok Central Link, #01-31", "postcode": "658713", "showMarker": false}}, {"geometry": {"type": "Point", "coordinates": [103.891649083389, 1.32175498895285]}, "type": "Feature", "properties": {"binType": "ewaste", "address": "Shell Paya Lebar PIE, 98 Paya Lebar Road", "postcode": "409008", "showMarker": false}}, {"geometry": {"type": "Point", "coordinates": [103.89265572033, 1.39153963269232]}, "type": "Feature", "properties": {"binType": "ewaste", "address": "Shell Sengkang, 61 Sengkang East Road", "postcode": "545015", "showMarker": false}}, {"geometry": {"type": "Point", "coordinates": [103.785688739235, 1.43600784517148]}, "type": "Feature", "properties": {"binType": "ewaste", "address": "Causeway Point, 1 Woodlands Square", "postcode": "738099", "showMarker": false}}, {"geometry": {"type": "Point", "coordinates": [103.928839989349, 1.34793947802841]}, "type": "Feature", "properties": {"binType": "ewaste", "address": "Temasek Polytechnic (School of Engineering), 21 Tampines Avenue 1", "postcode": "529757", "showMarker": false}}, {"geometry": {"type": "Point", "coordinates": [103.928839989349, 1.34793947802841]}, "type": "Feature", "properties": {"binType": "ewaste", "address": "Temasek Polytechnic (Temasek Polytechnic Green Interest Group), 21 Tampines Avenue 1", "postcode": "529757", "showMarker": false}}, {"geometry": {"type": "Point", "coordinates": [103.863134276195, 1.30334822666342]}, "type": "Feature", "properties": {"binType": "ewaste", "address": "Crawford, 15 Beach Road, #01-4685", "postcode": "190015", "showMarker": false}}, {"geometry": {"type": "Point", "coordinates": [103.76274117629, 1.37834971260866]}, "type": "Feature", "properties": {"binType": "ewaste", "address": "Hillion Mall, 17 Petir Road", "postcode": "678278", "showMarker": false}}, {"geometry": {"type": "Point", "coordinates": [103.774811855067, 1.42952981919595]}, "type": "Feature", "properties": {"binType": "ewaste", "address": "Fuchun CC, 1 Woodlands Street 31, #01-02", "postcode": "738581", "showMarker": false}}, {"geometry": {"type": "Point", "coordinates": [103.945019461564, 1.35431555986081]}, "type": "Feature", "properties": {"binType": "ewaste", "address": "Tampines 1, 10 Tampines Central 1", "postcode": "529536", "showMarker": false}}, {"geometry": {"type": "Point", "coordinates": [103.785688739235, 1.43600784517148]}, "type": "Feature", "properties": {"binType": "ewaste", "address": "Causeway Point (StarHub Shop), 1 Woodlands Square, #03-07/08/09/10", "postcode": "738099", "showMarker": false}}, {"geometry": {"type": "Point", "coordinates": [103.962425426305, 1.33355500463909]}, "type": "Feature", "properties": {"binType": "ewaste", "address": "Changi City Point, 5 Changi Business Park Central 1", "postcode": "486036", "showMarker": false}}, {"geometry": {"type": "Point", "coordinates": [103.743170436293, 1.33320021038331]}, "type": "Feature", "properties": {"binType": "ewaste", "address": "Courts (JEM), 50 Jurong Gateway Road, #04-30/31/32", "postcode": "608549", "showMarker": false}}, {"geometry": {"type": "Point", "coordinates": [103.832984361905, 1.3058558205006]}, "type": "Feature", "properties": {"binType": "ewaste", "address": "Scotts Square, 6 Scotts Road", "postcode": "228209", "showMarker": false}}, {"geometry": {"type": "Point", "coordinates": [103.786619621971, 1.43507788583775]}, "type": "Feature", "properties": {"binType": "ewaste", "address": "Woodlands Civic Centre, 900 South Woodlands Drive, #03-05/06", "postcode": "730900", "showMarker": false}}, {"geometry": {"type": "Point", "coordinates": [103.929964086817, 1.31335769009297]}, "type": "Feature", "properties": {"binType": "ewaste", "address": "Siglap, 10 Palm Avenue", "postcode": "456532", "showMarker": false}}, {"geometry": {"type": "Point", "coordinates": [103.87170454945, 1.35043817177432]}, "type": "Feature", "properties": {"binType": "ewaste", "address": "Nex (StarHub Shop), 23 Serangoon Central, #B1-66/67/68", "postcode": "556083", "showMarker": false}}, {"geometry": {"type": "Point", "coordinates": [103.698726261357, 1.34868981937877]}, "type": "Feature", "properties": {"binType": "ewaste", "address": "Gek Poh Ville CC, 1 Jurong West Street 74", "postcode": "649149", "showMarker": false}}, {"geometry": {"type": "Point", "coordinates": [103.746481836549, 1.38560551852514]}, "type": "Feature", "properties": {"binType": "ewaste", "address": "Shell Choa Chu Kang, 20 Choa Chu Kang Drive", "postcode": "689717", "showMarker": false}}, {"geometry": {"type": "Point", "coordinates": [103.906612794612, 1.40452720847386]}, "type": "Feature", "properties": {"binType": "ewaste", "address": "Shell Punggol, 821 Punggol Road", "postcode": "829169", "showMarker": false}}, {"geometry": {"type": "Point", "coordinates": [103.915599326097, 1.3339618615203]}, "type": "Feature", "properties": {"binType": "ewaste", "address": "Eunos Heights Zone 3 RC, 627 Bedok Reservoir Road, #01-1608", "postcode": "470627", "showMarker": false}}, {"geometry": {"type": "Point", "coordinates": [103.959198004761, 1.3685870294423]}, "type": "Feature", "properties": {"binType": "ewaste", "address": "Pasir Ris East CC, 1 Pasir Ris Drive 4", "postcode": "519457", "showMarker": false}}, {"geometry": {"type": "Point", "coordinates": [103.935952394887, 1.35173850438617]}, "type": "Feature", "properties": {"binType": "ewaste", "address": "Tampines Ville RC, 842 Tampines Street 82, #01-141", "postcode": "520842", "showMarker": false}}, {"geometry": {"type": "Point", "coordinates": [103.892622240184, 1.36475743233025]}, "type": "Feature", "properties": {"binType": "ewaste", "address": "Hougang CC, 35 Hougang Avenue 3", "postcode": "538840", "showMarker": false}}, {"geometry": {"type": "Point", "coordinates": [103.83840640501, 1.29897549945424]}, "type": "Feature", "properties": {"binType": "ewaste", "address": "ComCentre, 31 Exeter Road", "postcode": "239732", "showMarker": false}}, {"geometry": {"type": "Point", "coordinates": [103.894980032554, 1.39209415018227]}, "type": "Feature", "properties": {"binType": "ewaste", "address": "Compass One, 1 Sengkang Square, #B1-08", "postcode": "545078", "showMarker": false}}, {"geometry": {"type": "Point", "coordinates": [103.831395131817, 1.30403577030596]}, "type": "Feature", "properties": {"binType": "ewaste", "address": "ION Orchard, 2 Orchard Turn, #B4-22", "postcode": "238801", "showMarker": false}}, {"geometry": {"type": "Point", "coordinates": [103.764832077473, 1.30264555979077]}, "type": "Feature", "properties": {"binType": "ewaste", "address": "West Coast CC, 2 Clementi West Street 2", "postcode": "129605", "showMarker": false}}, {"geometry": {"type": "Point", "coordinates": [103.749021980031, 1.35018915982967]}, "type": "Feature", "properties": {"binType": "ewaste", "address": "West Mall, 1 Bukit Batok Central Link", "postcode": "658713", "showMarker": false}}, {"geometry": {"type": "Point", "coordinates": [103.787990904706, 1.29516110689451]}, "type": "Feature", "properties": {"binType": "ewaste", "address": "Ayer Rajah, 6 Ayer Rajah Crescent", "postcode": "139962", "showMarker": false}}, {"geometry": {"type": "Point", "coordinates": [103.943813815002, 1.33999725668808]}, "type": "Feature", "properties": {"binType": "ewaste", "address": "Tampines, 29 Tampines Street 92", "postcode": "528879", "showMarker": false}}]}