{"type": "FeatureCollection", "features": [{"geometry": {"type": "Point", "coordinates": [103.836092102185, 1.4280358453217]}, "type": "Feature", "properties": {"binType": "rvm", "address": "1 Northpoint Drive", "postcode": "768019", "showMarker": false}}, {"geometry": {"type": "Point", "coordinates": [103.844723811483, 1.42502959384021]}, "type": "Feature", "properties": {"binType": "rvm", "address": "51 Yishun Ave 11", "postcode": "768867", "showMarker": false}}, {"geometry": {"type": "Point", "coordinates": [103.832677194755, 1.41781928344394]}, "type": "Feature", "properties": {"binType": "rvm", "address": "813 Yishun Ring Road", "postcode": "760813", "showMarker": false}}, {"geometry": {"type": "Point", "coordinates": [103.800573465174, 1.43977701137105]}, "type": "Feature", "properties": {"binType": "rvm", "address": "676 Woodlands Drive 71", "postcode": "730676", "showMarker": false}}, {"geometry": {"type": "Point", "coordinates": [103.782224178347, 1.43676943286901]}, "type": "Feature", "properties": {"binType": "rvm", "address": "106 Woodlands Street 13", "postcode": "730106", "showMarker": false}}, {"geometry": {"type": "Point", "coordinates": [103.845767851183, 1.38227243839823]}, "type": "Feature", "properties": {"binType": "rvm", "address": "200 Ang Mo Kio Ave 9", "postcode": "569770", "showMarker": false}}, {"geometry": {"type": "Point", "coordinates": [103.88807173322, 1.37057348514434]}, "type": "Feature", "properties": {"binType": "rvm", "address": "93 Hougang Ave 4", "postcode": "538832", "showMarker": false}}, {"geometry": {"type": "Point", "coordinates": [103.885784248377, 1.39550157613892]}, "type": "Feature", "properties": {"binType": "rvm", "address": "57 Anchorvale Rd", "postcode": "544964", "showMarker": false}}, {"geometry": {"type": "Point", "coordinates": [103.940884212615, 1.35638869589828]}, "type": "Feature", "properties": {"binType": "rvm", "address": "1 Tampines Walk", "postcode": "528729", "showMarker": false}}, {"geometry": {"type": "Point", "coordinates": [103.953858338952, 1.35292161353177]}, "type": "Feature", "properties": {"binType": "rvm", "address": "201E Tampines St 21", "postcode": "527201", "showMarker": false}}, {"geometry": {"type": "Point", "coordinates": [103.953123216216, 1.3612848119595]}, "type": "Feature", "properties": {"binType": "rvm", "address": "478 Tampines St 44", "postcode": "520478", "showMarker": false}}, {"geometry": {"type": "Point", "coordinates": [103.951547798881, 1.37343173841327]}, "type": "Feature", "properties": {"binType": "rvm", "address": "110 Pasir Ris Central", "postcode": "519641", "showMarker": false}}, {"geometry": {"type": "Point", "coordinates": [103.929267656464, 1.3247720681708]}, "type": "Feature", "properties": {"binType": "rvm", "address": "311 New Upper Changi Rd", "postcode": "467360", "showMarker": false}}, {"geometry": {"type": "Point", "coordinates": [103.931620621577, 1.32698498848505]}, "type": "Feature", "properties": {"binType": "rvm", "address": "11 Bedok North Street 1", "postcode": "469662", "showMarker": false}}, {"geometry": {"type": "Point", "coordinates": [103.944387987324, 1.35267231590719]}, "type": "Feature", "properties": {"binType": "rvm", "address": "4 Tampines Central 5", "postcode": "529510", "showMarker": false}}, {"geometry": {"type": "Point", "coordinates": [103.887650375643, 1.32097767423132]}, "type": "Feature", "properties": {"binType": "rvm", "address": "601 Aljunied Ave 1", "postcode": "389862", "showMarker": false}}, {"geometry": {"type": "Point", "coordinates": [103.832181549247, 1.28478559007698]}, "type": "Feature", "properties": {"binType": "rvm", "address": "30 Seng Poh Road", "postcode": "168898", "showMarker": false}}, {"geometry": {"type": "Point", "coordinates": [103.813268766733, 1.32483699077339]}, "type": "Feature", "properties": {"binType": "rvm", "address": "2 Adam Road", "postcode": "289877", "showMarker": false}}, {"geometry": {"type": "Point", "coordinates": [103.866162168268, 1.36273679858918]}, "type": "Feature", "properties": {"binType": "rvm", "address": "49A Serangoon Garden Way", "postcode": "555945", "showMarker": false}}, {"geometry": {"type": "Point", "coordinates": [103.844697085395, 1.28499882771414]}, "type": "Feature", "properties": {"binType": "rvm", "address": "133 New Bridge Road", "postcode": "59413", "showMarker": false}}, {"geometry": {"type": "Point", "coordinates": [103.848430082687, 1.35017242685326]}, "type": "Feature", "properties": {"binType": "rvm", "address": "9 Bishan Pl", "postcode": "579837", "showMarker": false}}, {"geometry": {"type": "Point", "coordinates": [103.850922078347, 1.35528262669761]}, "type": "Feature", "properties": {"binType": "rvm", "address": "5 Bishan Street 14", "postcode": "579783", "showMarker": false}}, {"geometry": {"type": "Point", "coordinates": [103.849984794935, 1.29124400033576]}, "type": "Feature", "properties": {"binType": "rvm", "address": "107 North Bridge Rd", "postcode": "179105", "showMarker": false}}, {"geometry": {"type": "Point", "coordinates": [103.845433875819, 1.29970945788654]}, "type": "Feature", "properties": {"binType": "rvm", "address": "60A Orchard Rd", "postcode": "238890", "showMarker": false}}, {"geometry": {"type": "Point", "coordinates": [103.853518086357, 1.29966015870694]}, "type": "Feature", "properties": {"binType": "rvm", "address": "201 Victoria Street", "postcode": "188067", "showMarker": false}}, {"geometry": {"type": "Point", "coordinates": [103.849986784647, 1.33060009023759]}, "type": "Feature", "properties": {"binType": "rvm", "address": "301 Lor 6 Toa Payoh", "postcode": "319392", "showMarker": false}}, {"geometry": {"type": "Point", "coordinates": [103.859961713025, 1.31085490234734]}, "type": "Feature", "properties": {"binType": "rvm", "address": "100 Tyrwhitt Rd", "postcode": "207542", "showMarker": false}}, {"geometry": {"type": "Point", "coordinates": [103.772489664076, 1.37760059045423]}, "type": "Feature", "properties": {"binType": "rvm", "address": "2 Bukit Panjang Ring Rd", "postcode": "679947", "showMarker": false}}, {"geometry": {"type": "Point", "coordinates": [103.749456841487, 1.35905888839516]}, "type": "Feature", "properties": {"binType": "rvm", "address": "30 Bukit Batok Street 31", "postcode": "659440", "showMarker": false}}, {"geometry": {"type": "Point", "coordinates": [103.779200668535, 1.33690818184301]}, "type": "Feature", "properties": {"binType": "rvm", "address": "9 King Albert Park", "postcode": "598332", "showMarker": false}}, {"geometry": {"type": "Point", "coordinates": [103.781304521863, 1.29079946923062]}, "type": "Feature", "properties": {"binType": "rvm", "address": "27 Prince George's Park", "postcode": "118425", "showMarker": false}}, {"geometry": {"type": "Point", "coordinates": [103.772396246249, 1.30477687701073]}, "type": "Feature", "properties": {"binType": "rvm", "address": "2 College Ave West", "postcode": "138607", "showMarker": false}}, {"geometry": {"type": "Point", "coordinates": [103.771562462036, 1.33276259652758]}, "type": "Feature", "properties": {"binType": "rvm", "address": "535 Clementi Road", "postcode": "599489", "showMarker": false}}, {"geometry": {"type": "Point", "coordinates": [103.763961852618, 1.38051732815894]}, "type": "Feature", "properties": {"binType": "rvm", "address": "1 Jelebu Rd", "postcode": "677743", "showMarker": false}}, {"geometry": {"type": "Point", "coordinates": [103.744950384161, 1.38506835667537]}, "type": "Feature", "properties": {"binType": "rvm", "address": "21 Choa Chu Kang Ave 4", "postcode": "689812", "showMarker": false}}, {"geometry": {"type": "Point", "coordinates": [103.7467344968, 1.33489843717521]}, "type": "Feature", "properties": {"binType": "rvm", "address": "2 Jurong East Street 21", "postcode": "609601", "showMarker": false}}, {"geometry": {"type": "Point", "coordinates": [103.740167234363, 1.33333039944981]}, "type": "Feature", "properties": {"binType": "rvm", "address": "2 Jurong East Central 1", "postcode": "609731", "showMarker": false}}, {"geometry": {"type": "Point", "coordinates": [103.742586017746, 1.334025287455]}, "type": "Feature", "properties": {"binType": "rvm", "address": "3 Gateway Dr", "postcode": "608532", "showMarker": false}}, {"geometry": {"type": "Point", "coordinates": [103.728835257122, 1.34621560865411]}, "type": "Feature", "properties": {"binType": "rvm", "address": "21 Jurong East Street 31", "postcode": "609517", "showMarker": false}}, {"geometry": {"type": "Point", "coordinates": [103.752170222868, 1.35979953416435]}, "type": "Feature", "properties": {"binType": "rvm", "address": "810 Bukit Batok West Ave 5", "postcode": "659088", "showMarker": false}}, {"geometry": {"type": "Point", "coordinates": [103.74792070975, 1.3906661702347]}, "type": "Feature", "properties": {"binType": "rvm", "address": "1 Choa Chu Kang St 53", "postcode": "689236", "showMarker": false}}, {"geometry": {"type": "Point", "coordinates": [103.839555016202, 1.24715040902549]}, "type": "Feature", "properties": {"binType": "rvm", "address": "1 Cove Ave", "postcode": "98537", "showMarker": false}}, {"geometry": {"type": "Point", "coordinates": [103.817534549181, 1.25120856794173]}, "type": "Feature", "properties": {"binType": "rvm", "address": "50 Beach View", "postcode": "98604", "showMarker": false}}, {"geometry": {"type": "Point", "coordinates": [103.820219415166, 1.25493344657595]}, "type": "Feature", "properties": {"binType": "rvm", "address": "8 Sentosa Gateway", "postcode": "98269", "showMarker": false}}]}