{"type": "FeatureCollection", "features": [{"geometry": {"type": "Point", "coordinates": [103.901953043814, 1.33068803025928]}, "type": "Feature", "properties": {"address": "301 Ubi Avenue 1, #01-295", "postcode": "400301", "showMarker": true}}, {"geometry": {"type": "Point", "coordinates": [103.847868789811, 1.3707312731343]}, "type": "Feature", "properties": {"address": "710A Ang Mo Kio Avenue 8, #01-2625", "postcode": "561710", "showMarker": true}}, {"geometry": {"type": "Point", "coordinates": [103.930861572812, 1.32647173014785]}, "type": "Feature", "properties": {"address": "206 Bedok North Street 1, #01-355", "postcode": "460206", "showMarker": true}}, {"geometry": {"type": "Point", "coordinates": [103.843197418793, 1.28471077205877]}, "type": "Feature", "properties": {"address": "The Majestic Theatre, 80 Eu Tong Sen Street", "postcode": "59810", "showMarker": true}}, {"geometry": {"type": "Point", "coordinates": [103.739371389066, 1.33375343289469]}, "type": "Feature", "properties": {"address": "135 Jurong East Street 13, #01-315", "postcode": "600135", "showMarker": true}}, {"geometry": {"type": "Point", "coordinates": [103.944458087634, 1.35480107032778]}, "type": "Feature", "properties": {"address": "510 Tampines Central 1, #01-250", "postcode": "520510", "showMarker": true}}, {"geometry": {"type": "Point", "coordinates": [103.850483008706, 1.33166183429417]}, "type": "Feature", "properties": {"address": "192 Toa Payoh Lorong 4, #01-674", "postcode": "310192", "showMarker": true}}, {"geometry": {"type": "Point", "coordinates": [103.812976187254, 1.29539368902809]}, "type": "Feature", "properties": {"address": "MINDS Shop@Margaret, 800 Margaret Drive", "postcode": "149310", "showMarker": true}}, {"geometry": {"type": "Point", "coordinates": [103.797867618606, 1.43719012091055]}, "type": "Feature", "properties": {"address": "MINDS Shop@Woodlands, 30 Woodlands Ring Road", "postcode": "737883", "showMarker": true}}, {"geometry": {"type": "Point", "coordinates": [103.877736346048, 1.36278695872793]}, "type": "Feature", "properties": {"address": "MINDS Shop@Rosyth, 29 Rosyth Road", "postcode": "546190", "showMarker": true}}, {"geometry": {"type": "Point", "coordinates": [103.878449270915, 1.37181648298855]}, "type": "Feature", "properties": {"address": "MINDS Shop@Napiri, 7 Lorong Napiri", "postcode": "547533", "showMarker": true}}, {"geometry": {"type": "Point", "coordinates": [103.817475623896, 1.28731902765015]}, "type": "Feature", "properties": {"address": "MINDS Shop Plus@NTUC Eldercare Silver Activity Centre, 71 Redhill Road, #01-29", "postcode": "150071", "showMarker": true}}, {"geometry": {"type": "Point", "coordinates": [103.768209414105, 1.36237213323]}, "type": "Feature", "properties": {"address": "Praisehaven, 500 Upper Bukit Timah Road", "postcode": "678106", "showMarker": true}}, {"geometry": {"type": "Point", "coordinates": [103.815073339799, 1.29476320096751]}, "type": "Feature", "properties": {"address": "Tanglin Family Hub, 356 Tanglin Road", "postcode": "247674", "showMarker": true}}, {"geometry": {"type": "Point", "coordinates": [103.965141277539, 1.35332836586401]}, "type": "Feature", "properties": {"address": "The Salvation Army Hope Centre, 7 Upper Changi Road North", "postcode": "507705", "showMarker": true}}, {"geometry": {"type": "Point", "coordinates": [103.842518361893, 1.36096595232195]}, "type": "Feature", "properties": {"address": "The Salvation Army Headquarters, 20 Bishan Street 22", "postcode": "579768", "showMarker": true}}, {"geometry": {"type": "Point", "coordinates": [103.775883852989, 1.29042903448092]}, "type": "Feature", "properties": {"address": "The Haven, 350 Pasir Panjang Road", "postcode": "118692", "showMarker": true}}, {"geometry": {"type": "Point", "coordinates": [103.746734495003, 1.33489843898343]}, "type": "Feature", "properties": {"address": "IMM Open Car Park, 2 Jurong East Street 21", "postcode": "609601", "showMarker": true}}, {"geometry": {"type": "Point", "coordinates": [103.757754241016, 1.41118970963686]}, "type": "Feature", "properties": {"address": "Mandai Station at Smart Energy Pte. Ltd., 1 Mandai Link Road", "postcode": "728650", "showMarker": true}}, {"geometry": {"type": "Point", "coordinates": [103.852875623027, 1.30302299524145]}, "type": "Feature", "properties": {"address": "Sim Lim Square, 1 Rochor Canal Road, #04-04", "postcode": "188504", "showMarker": true}}, {"geometry": {"type": "Point", "coordinates": [103.855327954497, 1.29906799078836]}, "type": "Feature", "properties": {"address": "Bugis Junction, 200 Victoria Street, #03-25", "postcode": "188021", "showMarker": true}}]}